{
  "type": "FeatureCollection",
  "features": [
    {
      "type": "Feature",
      "properties": {
        "norad_id": 54259,
        "name": "EUTELSAT 10B",
        "group": "eutelsat",
        "lat": -0.004807421093863637,
        "lon": -97.09361304242158,
        "alt_km": 35786.76348576526,
        "timestamp": "2025-12-10T11:33:53.063058+00:00",
        "meta_object_name": "EUTELSAT 10B",
        "meta_object_id": "2022-157A",
        "meta_epoch": "2025-12-10T00:54:38.687328",
        "meta_mean_motion": 1.00269493,
        "meta_eccentricity": 7.92e-05,
        "meta_inclination": 0.0605,
        "meta_ra_of_asc_node": 99.2164,
        "meta_arg_of_pericenter": 72.3757,
        "meta_mean_anomaly": 291.0644,
        "meta_ephemeris_type": 0,
        "meta_classification_type": "U",
        "meta_norad_cat_id": 54259,
        "meta_element_set_no": 999,
        "meta_rev_at_epoch": 1113,
        "meta_bstar": 0,
        "meta_mean_motion_dot": 7.1e-07,
        "meta_mean_motion_ddot": 0,
        "tle_line1": "1 54259U 22157A   25344.03794777  .00000071  00000+0  00000+0 0  9990",
        "tle_line2": "2 54259   0.0605  99.2164 0000792  72.3757 291.0644  1.00269493 11134"
      },
      "geometry": {
        "type": "Point",
        "coordinates": [
          -97.09361304242158,
          -0.004807421093863637
        ]
      }
    },
    {
      "type": "Feature",
      "properties": {
        "norad_id": 59346,
        "name": "EUTELSAT 36D",
        "group": "eutelsat",
        "lat": -0.030855257633074396,
        "lon": -71.23241043526404,
        "alt_km": 35785.35746645965,
        "timestamp": "2025-12-10T11:33:53.063069+00:00",
        "meta_object_name": "EUTELSAT 36D",
        "meta_object_id": "2024-059A",
        "meta_epoch": "2025-12-09T22:51:38.731104",
        "meta_mean_motion": 1.00268847,
        "meta_eccentricity": 4.93e-05,
        "meta_inclination": 0.0174,
        "meta_ra_of_asc_node": 350.2442,
        "meta_arg_of_pericenter": 342.9302,
        "meta_mean_anomaly": 124.5242,
        "meta_ephemeris_type": 0,
        "meta_classification_type": "U",
        "meta_norad_cat_id": 59346,
        "meta_element_set_no": 999,
        "meta_rev_at_epoch": 625,
        "meta_bstar": 0,
        "meta_mean_motion_dot": 0,
        "meta_mean_motion_ddot": 0,
        "tle_line1": "1 59346U 24059A   25343.95253161  .00000000  00000+0  00000+0 0  9994",
        "tle_line2": "2 59346   0.0174 350.2442 0000493 342.9302 124.5242  1.00268847  6259"
      },
      "geometry": {
        "type": "Point",
        "coordinates": [
          -71.23241043526404,
          -0.030855257633074396
        ]
      }
    }
  ]
}